IRIDIUM 166             
1 43570U 18061B   25304.10544445  .00000194  00000+0  62190-4 0  9991
2 43570  86.3981 152.5159 0001895  88.7683 271.3730 14.34218536380569
IRIDIUM 158             
1 43571U 18061C   25304.14350697  .00000365  00000+0  12334-3 0  9994
2 43571  86.3982 152.5100 0002137  79.7299 280.4138 14.34216997380539
IRIDIUM 165             
1 43572U 18061D   25304.09910225  .00000124  00000+0  37377-4 0  9996
2 43572  86.3983 152.5703 0001994  89.7029 270.4396 14.34218235380556
IRIDIUM 155             
1 43573U 18061E   25304.13081077  .00000126  00000+0  38032-4 0  9997
2 43573  86.3978 152.4376 0002058  84.6242 275.5189 14.34220599380528
IRIDIUM 154             
1 43574U 18061F   25304.11178813  .00000036  00000+0  56235-5 0  9997
2 43574  86.3983 152.5676 0002092  86.8189 273.3246 14.34217787380571
IRIDIUM 163             
1 43575U 18061G   25304.09276035  .00000039  00000+0  67235-5 0  9995
2 43575  86.3979 152.4987 0002260  85.6890 274.4564 14.34217746380541
IRIDIUM 156             
1 43576U 18061H   25304.06738884  .00000135  00000+0  41189-4 0  9994
2 43576  86.3978 152.5159 0001876  80.2541 279.8867 14.34218247380530
IRIDIUM 164             
1 43577U 18061J   25303.97859360 -.00000001  00000+0 -74024-5 0  9996
2 43577  86.3987 152.5895 0001815  91.1971 268.9432 14.34217446380569
